NORAD_CAT_ID,OBJECT_NAME,OBJECT_TYPE,EPOCH,MEAN_MOTION,ECCENTRICITY,INCLINATION,RA_OF_ASC_NODE,ARG_OF_PERICENTER,MEAN_ANOMALY,BSTAR,MEAN_MOTION_DOT,MEAN_MOTION_DDOT,TLE_LINE0,TLE_LINE1,TLE_LINE2,SEMIMAJOR_AXIS,PERIOD,APOGEE,PERIGEE,DECAYED
51732.0,STARLINK-3518,PAYLOAD,2022-07-19 22:00:00,15.08881891,0.0002021,53.2174,164.2109,59.6237,100.0623,-0.0070669,-0.00111158,0.0,0 STARLINK-3518,1 51732U 22016U   22200.91667824 -.00111158  00000-0 -70669-2 0  9997,2 51732  53.2174 164.2109 0002021  59.6237 100.0623 15.08881891  1307,6917.752,95.435,541.015,538.219,0.0
51732.0,STARLINK-3518,PAYLOAD,2022-07-20 06:00:00,15.0882176,0.0002089999999999,53.2174,162.7206,53.3021,118.0138,0.0012391,0.00019478,0.0,0 STARLINK-3518,1 51732U 22016U   22201.25001157  .00019478  00000-0  12391-2 0  9994,2 51732  53.2174 162.7206 0002090  53.3021 118.0138 15.08821760 24153,6917.936,95.439,541.247,538.355,0.0
51732.0,STARLINK-3518,PAYLOAD,2022-07-20 14:00:01,15.08848205,0.0001985,53.2173,161.2231,54.7475,128.145,-0.0011351,-0.00018312,0.0,0 STARLINK-3518,1 51732U 22016U   22201.58334491 -.00018312  00000-0 -11351-2 0  9993,2 51732  53.2173 161.2231 0001985  54.7475 128.1450 15.08848205  1308,6917.855,95.437,541.094,538.347,0.0
51732.0,STARLINK-3518,PAYLOAD,2022-07-20 22:00:01,15.08858304,0.0001965,53.2174,159.7262,59.1317,135.4106,-0.0024232,-0.00038667,0.0,0 STARLINK-3518,1 51732U 22016U   22201.91668981 -.00038667  00000-0 -24232-2 0  9991,2 51732  53.2174 159.7262 0001965  59.1317 135.4106 15.08858304  1307,6917.824000000001,95.436,541.049,538.33,0.0
51732.0,STARLINK-3518,PAYLOAD,2022-07-21 06:00:00,15.08804646,0.0002084,53.2174,158.2316,51.6456,154.4406,0.0020885,0.00033075,0.0,0 STARLINK-3518,1 51732U 22016U   22202.25001157  .00033075  00000-0  20885-2 0  9991,2 51732  53.2174 158.2316 0002084  51.6456 154.4406 15.08804646 24304,6917.988,95.44,541.295,538.4119999999998,0.0
51732.0,STARLINK-3518,PAYLOAD,2022-07-21 14:00:01,15.0883617,0.0001974,53.2175,156.7339,53.7742,163.9368,-0.0012292,-0.00019796,0.0,0 STARLINK-3518,1 51732U 22016U   22202.58335648 -.00019796  00000-0 -12292-2 0  9991,2 51732  53.2175 156.7339 0001974  53.7742 163.9368 15.08836170  1305,6917.892,95.438,541.123,538.3919999999998,0.0
51732.0,STARLINK-3518,PAYLOAD,2022-07-21 22:00:00,15.08839711,0.0001996999999999,53.2177,155.2373,58.485,170.7402,0.00030269,4.532e-05,0.0,0 STARLINK-3518,1 51732U 22016U   22202.91667824  .00004532  00000-0  30269-3 0  9997,2 51732  53.2177 155.2373 0001997  58.4850 170.7402 15.08839711 24401,6917.880999999999,95.438,541.128,538.365,0.0
51732.0,STARLINK-3518,PAYLOAD,2022-07-22 06:00:00,15.08825793,0.0002166999999999,53.2177,153.7426,52.7209,188.1096,0.0026011,0.00041336,0.0,0 STARLINK-3518,1 51732U 22016U   22203.25001157  .00041336  00000-0  26011-2 0  9998,2 51732  53.2177 153.7426 0002167  52.7209 188.1096 15.08825793  1309,6917.924,95.438,541.288,538.29,0.0
51732.0,STARLINK-3518,PAYLOAD,2022-07-22 22:00:00,15.08855256,0.0001952,53.2181,150.7483,58.6422,205.4032,-0.00047677,-7.871e-05,0.0,0 STARLINK-3518,1 51732U 22016U   22203.91667824 -.00007871  00000-0 -47677-3 0  9990,2 51732  53.2181 150.7483 0001952  58.6422 205.4032 15.08855256  1307,6917.834,95.437,541.049,538.3480000000002,0.0
51732.0,STARLINK-3518,PAYLOAD,2022-07-23 08:00:01,15.08829821,0.0002021999999999,53.2179,148.8794,49.8733,318.6741,5.9719e-05,6.62e-06,0.0,0 STARLINK-3518,1 51732U 22016U   22204.33334491  .00000662  00000-0  59719-4 0  9998,2 51732  53.2179 148.8794 0002022  49.8733 318.6741 15.08829821 24626,6917.9119999999975,95.438,541.175,538.378,0.0
51732.0,STARLINK-3518,PAYLOAD,2022-07-23 14:00:01,15.08825188,0.0001871,53.2182,147.7557,53.7163,233.5834,-0.00039435,-6.556e-05,0.0,0 STARLINK-3518,1 51732U 22016U   22204.58335648 -.00006556  00000-0 -39435-3 0  9992,2 51732  53.2182 147.7557 0001871  53.7163 233.5834 15.08825188  1307,6917.926,95.438,541.085,538.496,0.0
51732.0,STARLINK-3518,PAYLOAD,2022-07-23 22:00:00,15.08845942,0.0001857,53.2184,146.2595,57.6082,241.2046,-0.00016183,-2.863e-05,0.0,0 STARLINK-3518,1 51732U 22016U   22204.91667824 -.00002863  00000-0 -16183-3 0  9995,2 51732  53.2184 146.2595 0001857  57.6082 241.2046 15.08845942  1303,6917.861999999999,95.437,541.012,538.443,0.0
51732.0,STARLINK-3518,PAYLOAD,2022-07-24 14:00:01,15.08853925,0.0001813,53.2183,143.2669,55.2871,266.7163,-0.0027235,-0.00043389,0.0,0 STARLINK-3518,1 51732U 22016U   22205.58334491 -.00043389  00000-0 -27235-2 0  9997,2 51732  53.2183 143.2669 0001813  55.2871 266.7163 15.08853925  1305,6917.8380000000025,95.437,540.957,538.4490000000002,0.0
51732.0,STARLINK-3518,PAYLOAD,2022-07-24 22:00:00,15.08839922,0.0001771,53.2185,141.7708,57.4444,276.1476,-0.00079489,-0.00012917,0.0,0 STARLINK-3518,1 51732U 22016U   22205.91667824 -.00012917  00000-0 -79489-3 0  9995,2 51732  53.2185 141.7708 0001771  57.4444 276.1476 15.08839922  1300,6917.880999999999,95.438,540.971,538.52,0.0
51732.0,STARLINK-3518,PAYLOAD,2022-07-25 06:00:00,15.08807999,0.0001927,53.2183,140.276,51.8321,293.3497,0.0027928,0.00044401,0.0,0 STARLINK-3518,1 51732U 22016U   22206.25001157  .00044401  00000-0  27928-2 0  9995,2 51732  53.2183 140.2760 0001927  51.8321 293.3497 15.08807999 24909,6917.978,95.44,541.1759999999998,538.51,0.0
51732.0,STARLINK-3518,PAYLOAD,2022-07-25 14:00:01,15.0882698,0.0001781999999999,53.2183,138.7782,57.3041,299.4585,0.00070286,0.00010912,0.0,0 STARLINK-3518,1 51732U 22016U   22206.58334491  .00010912  00000-0  70286-3 0  9997,2 51732  53.2183 138.7782 0001782  57.3041 299.4585 15.08826980  1309,6917.92,95.438,541.018,538.552,0.0
51732.0,STARLINK-3518,PAYLOAD,2022-07-25 22:00:00,15.08855594,0.0001813,53.2185,137.2824,59.3211,309.0194,-0.0013469,-0.00021669,0.0,0 STARLINK-3518,1 51732U 22016U   22206.91667824 -.00021669  00000-0 -13469-2 0  9995,2 51732  53.2185 137.2824 0001813  59.3211 309.0194 15.08855594  1305,6917.833000000001,95.437,540.952,538.444,0.0
51732.0,STARLINK-3518,PAYLOAD,2022-07-26 14:00:01,15.08816466,0.0001721999999999,53.2181,134.2895,58.3632,333.1856,0.00060891,9.41e-05,0.0,0 STARLINK-3518,1 51732U 22016U   22207.58334491  .00009410  00000-0  60891-3 0  9990,2 51732  53.2181 134.2895 0001722  58.3632 333.1856 15.08816466  1309,6917.9519999999975,95.439,541.009,538.626,0.0
51732.0,STARLINK-3518,PAYLOAD,2022-07-26 22:00:00,15.08844428,0.0001781999999999,53.2183,132.79399999999998,59.2048,343.9095,-0.0015427,-0.00024759,0.0,0 STARLINK-3518,1 51732U 22016U   22207.91667824 -.00024759  00000-0 -15427-2 0  9995,2 51732  53.2183 132.7940 0001782  59.2048 343.9095 15.08844428 25165,6917.8669999999975,95.437,540.965,538.499,0.0
51732.0,STARLINK-3518,PAYLOAD,2022-07-27 14:00:01,15.08821221,0.0001773,53.2182,129.8009,59.2698,7.0241,0.0017259,0.00027272,0.0,0 STARLINK-3518,1 51732U 22016U   22208.58334491  .00027272  00000-0  17259-2 0  9996,2 51732  53.2182 129.8009 0001773  59.2698   7.0241 15.08821221  1305,6917.938,95.439,541.029,538.576,0.0
51732.0,STARLINK-3518,PAYLOAD,2022-07-27 16:00:00,15.08817395,0.000178,53.218,129.4266,60.2595,98.932,0.0026763,0.00042536,0.0,0 STARLINK-3518,1 51732U 22016U   22208.66667824  .00042536  00000-0  26763-2 0  9994,2 51732  53.2180 129.4266 0001780  60.2595  98.9320 15.08817395 25276,6917.949000000001,95.439,541.0459999999998,538.5830000000002,0.0
51732.0,STARLINK-3518,PAYLOAD,2022-07-27 22:00:00,15.08860024,0.0001889999999999,53.2183,128.3054,59.8715,18.003,-0.0016486,-0.00026445,0.0,0 STARLINK-3518,1 51732U 22016U   22208.91667824 -.00026445  00000-0 -16486-2 0  9996,2 51732  53.2183 128.3054 0001890  59.8715  18.0030 15.08860024  1308,6917.819,95.436,540.992,538.377,0.0
51732.0,STARLINK-3518,PAYLOAD,2022-07-28 08:00:01,15.08862355,0.0001946,53.2182,126.4357,54.1812,128.1924,-0.0022009,-0.00035167,0.0,0 STARLINK-3518,1 51732U 22016U   22209.33334491 -.00035167  00000-0 -22009-2 0  9993,2 51732  53.2182 126.4357 0001946  54.1812 128.1924 15.08862355 25377,6917.812,95.436,541.023,538.331,0.0
51732.0,STARLINK-3518,PAYLOAD,2022-07-28 14:00:01,15.08821587,0.0001776999999999,53.2185,125.3122,58.6956,42.3977,0.0007994,0.00012451,0.0,0 STARLINK-3518,1 51732U 22016U   22209.58334491  .00012451  00000-0  79940-3 0  9996,2 51732  53.2185 125.3122 0001777  58.6956  42.3977 15.08821587  1302,6917.937,95.439,541.031,538.572,0.0
51732.0,STARLINK-3518,PAYLOAD,2022-07-28 22:00:00,15.08849284,0.0001893,53.2186,123.8167,58.6205,54.0489,-0.0016409,-0.00026315,0.0,0 STARLINK-3518,1 51732U 22016U   22209.91667824 -.00026315  00000-0 -16409-2 0  9998,2 51732  53.2186 123.8167 0001893  58.6205  54.0489 15.08849284  1303,6917.852,95.437,541.0269999999998,538.4069999999998,0.0
51732.0,STARLINK-3518,PAYLOAD,2022-07-29 06:00:00,15.08821749,0.0001986,53.2186,122.3214,53.0287,71.2367,0.002493,0.00039592,0.0,0 STARLINK-3518,1 51732U 22016U   22210.25001157  .00039592  00000-0  24930-2 0  9995,2 51732  53.2186 122.3214 0001986  53.0287  71.2367 15.08821749 25513,6917.936,95.439,541.175,538.427,0.0
51732.0,STARLINK-3518,PAYLOAD,2022-07-29 14:00:01,15.08829037,0.0001828,53.2189,120.8235,58.6964,77.1642,0.0013025,0.00020496,0.0,0 STARLINK-3518,1 51732U 22016U   22210.58334491  .00020496  00000-0  13025-2 0  9997,2 51732  53.2189 120.8235 0001828  58.6964  77.1642 15.08829037  1300,6917.9140000000025,95.438,541.043,538.514,0.0
51732.0,STARLINK-3518,PAYLOAD,2022-07-29 22:00:00,15.08847128,0.0001906,53.2191,119.328,57.8266,89.6242,-0.0028929,-0.00046044,0.0,0 STARLINK-3518,1 51732U 22016U   22210.91667824 -.00046044  00000-0 -28929-2 0  9991,2 51732  53.2191 119.3280 0001906  57.8266  89.6242 15.08847128  1304,6917.859,95.437,541.0419999999998,538.405,0.0
51732.0,STARLINK-3518,PAYLOAD,2022-07-30 14:00:01,15.08806409,0.0001828,53.2191,116.3347,59.0445,111.5711,0.0024302,0.00038565,0.0,0 STARLINK-3518,1 51732U 22016U   22211.58334491  .00038565  00000-0  24302-2 0  9994,2 51732  53.2191 116.3347 0001828  59.0445 111.5711 15.08806409  1304,6917.983,95.44,541.113,538.5830000000002,0.0
